{
  "type": "FeatureCollection",
  "features": [
    {
      "type": "Feature",
      "properties": {
        "norad_id": 43823,
        "name": "GEO-KOMPSAT-2A",
        "group": "weather",
        "lat": -0.02387262439894455,
        "lon": -4.324102593026945,
        "alt_km": 35786.774774538375,
        "timestamp": "2025-12-14T09:36:22.677702+00:00",
        "meta_object_name": "GEO-KOMPSAT-2A",
        "meta_object_id": "2018-100A",
        "meta_epoch": "2025-12-13T15:46:14.922624",
        "meta_mean_motion": 1.00273445,
        "meta_eccentricity": 4.478e-05,
        "meta_inclination": 0.0446,
        "meta_ra_of_asc_node": 143.3746,
        "meta_arg_of_pericenter": 336.2341,
        "meta_mean_anomaly": 327.8119,
        "meta_ephemeris_type": 0,
        "meta_classification_type": "U",
        "meta_norad_cat_id": 43823,
        "meta_element_set_no": 999,
        "meta_rev_at_epoch": 2576,
        "meta_bstar": 0,
        "meta_mean_motion_dot": -3.28e-06,
        "meta_mean_motion_ddot": 0,
        "tle_line1": "1 43823U 18100A   25347.65711716 -.00000328  00000+0  00000+0 0  9997",
        "tle_line2": "2 43823   0.0446 143.3746 0000447 336.2341 327.8119  1.00273445 25768"
      },
      "geometry": {
        "type": "Point",
        "coordinates": [
          -4.324102593026945,
          -0.02387262439894455
        ]
      }
    },
    {
      "type": "Feature",
      "properties": {
        "norad_id": 44387,
        "name": "METEOR-M2 2",
        "group": "weather",
        "lat": -63.112834514309704,
        "lon": 130.15357803760068,
        "alt_km": 818.2227288609747,
        "timestamp": "2025-12-14T09:36:22.677713+00:00",
        "meta_object_name": "METEOR-M2 2",
        "meta_object_id": "2019-038A",
        "meta_epoch": "2025-12-13T15:36:07.440768",
        "meta_mean_motion": 14.24291939,
        "meta_eccentricity": 0.00012867,
        "meta_inclination": 98.8974,
        "meta_ra_of_asc_node": 327.3899,
        "meta_arg_of_pericenter": 144.5572,
        "meta_mean_anomaly": 215.5692,
        "meta_ephemeris_type": 0,
        "meta_classification_type": "U",
        "meta_norad_cat_id": 44387,
        "meta_element_set_no": 999,
        "meta_rev_at_epoch": 33488,
        "meta_bstar": 0.00014609027,
        "meta_mean_motion_dot": 2.92e-06,
        "meta_mean_motion_ddot": 0,
        "tle_line1": "1 44387U 19038A   25347.65008612  .00000292  00000+0  14609-3 0  9991",
        "tle_line2": "2 44387  98.8974 327.3899 0001286 144.5572 215.5692 14.24291939334889"
      },
      "geometry": {
        "type": "Point",
        "coordinates": [
          130.15357803760068,
          -63.112834514309704
        ]
      }
    },
    {
      "type": "Feature",
      "properties": {
        "norad_id": 47719,
        "name": "ARKTIKA-M 1",
        "group": "weather",
        "lat": 58.18875195868781,
        "lon": -150.76491095863312,
        "alt_km": 33838.07610296564,
        "timestamp": "2025-12-14T09:36:22.677729+00:00",
        "meta_object_name": "ARKTIKA-M 1",
        "meta_object_id": "2021-016A",
        "meta_epoch": "2025-12-09T14:03:23.859648",
        "meta_mean_motion": 2.00631311,
        "meta_eccentricity": 0.7202538,
        "meta_inclination": 63.1769,
        "meta_ra_of_asc_node": 84.4506,
        "meta_arg_of_pericenter": 269.1116,
        "meta_mean_anomaly": 15.6235,
        "meta_ephemeris_type": 0,
        "meta_classification_type": "U",
        "meta_norad_cat_id": 47719,
        "meta_element_set_no": 999,
        "meta_rev_at_epoch": 3498,
        "meta_bstar": 0,
        "meta_mean_motion_dot": -6.1e-07,
        "meta_mean_motion_ddot": 0,
        "tle_line1": "1 47719U 21016A   25343.58569282 -.00000061  00000+0  00000+0 0  9996",
        "tle_line2": "2 47719  63.1769  84.4506 7202538 269.1116  15.6235  2.00631311 34985"
      },
      "geometry": {
        "type": "Point",
        "coordinates": [
          -150.76491095863312,
          58.18875195868781
        ]
      }
    },
    {
      "type": "Feature",
      "properties": {
        "norad_id": 49008,
        "name": "FENGYUN 3E",
        "group": "weather",
        "lat": 2.4827955944191085,
        "lon": 169.28414057087932,
        "alt_km": 828.2983712665382,
        "timestamp": "2025-12-14T09:36:22.677742+00:00",
        "meta_object_name": "FENGYUN 3E",
        "meta_object_id": "2021-062A",
        "meta_epoch": "2025-12-13T15:51:40.165056",
        "meta_mean_motion": 14.19878819,
        "meta_eccentricity": 5.362e-05,
        "meta_inclination": 98.748,
        "meta_ra_of_asc_node": 348.171,
        "meta_arg_of_pericenter": 262.3082,
        "meta_mean_anomaly": 97.8033,
        "meta_ephemeris_type": 0,
        "meta_classification_type": "U",
        "meta_norad_cat_id": 49008,
        "meta_element_set_no": 999,
        "meta_rev_at_epoch": 23025,
        "meta_bstar": -7.8544314e-05,
        "meta_mean_motion_dot": -2.11e-06,
        "meta_mean_motion_ddot": 0,
        "tle_line1": "1 49008U 21062A   25347.66088154 -.00000211  00000+0 -78544-4 0  9998",
        "tle_line2": "2 49008  98.7480 348.1710 0000536 262.3082  97.8033 14.19878819230258"
      },
      "geometry": {
        "type": "Point",
        "coordinates": [
          169.28414057087932,
          2.4827955944191085
        ]
      }
    },
    {
      "type": "Feature",
      "properties": {
        "norad_id": 51850,
        "name": "GOES 18",
        "group": "weather",
        "lat": 0.0025810351297060057,
        "lon": 90.42070422951628,
        "alt_km": 35787.45209243685,
        "timestamp": "2025-12-14T09:36:22.677756+00:00",
        "meta_object_name": "GOES 18",
        "meta_object_id": "2022-021A",
        "meta_epoch": "2025-12-13T14:30:37.166976",
        "meta_mean_motion": 1.00273224,
        "meta_eccentricity": 6.711e-05,
        "meta_inclination": 0.0132,
        "meta_ra_of_asc_node": 218.5948,
        "meta_arg_of_pericenter": 100.9358,
        "meta_mean_anomaly": 203.6651,
        "meta_ephemeris_type": 0,
        "meta_classification_type": "U",
        "meta_norad_cat_id": 51850,
        "meta_element_set_no": 999,
        "meta_rev_at_epoch": 473,
        "meta_bstar": 0,
        "meta_mean_motion_dot": 1.12e-06,
        "meta_mean_motion_ddot": 0,
        "tle_line1": "1 51850U 22021A   25347.60459684  .00000112  00000+0  00000+0 0  9991",
        "tle_line2": "2 51850   0.0132 218.5948 0000671 100.9358 203.6651  1.00273224  4732"
      },
      "geometry": {
        "type": "Point",
        "coordinates": [
          90.42070422951628,
          0.0025810351297060057
        ]
      }
    },
    {
      "type": "Feature",
      "properties": {
        "norad_id": 54234,
        "name": "NOAA 21 (JPSS-2)",
        "group": "weather",
        "lat": -1.778508999364304,
        "lon": 104.41375766141431,
        "alt_km": 831.4308360593814,
        "timestamp": "2025-12-14T09:36:22.677805+00:00",
        "meta_object_name": "NOAA 21 (JPSS-2)",
        "meta_object_id": "2022-150A",
        "meta_epoch": "2025-12-13T15:50:12.014592",
        "meta_mean_motion": 14.19524674,
        "meta_eccentricity": 0.00021905,
        "meta_inclination": 98.7462,
        "meta_ra_of_asc_node": 283.9566,
        "meta_arg_of_pericenter": 36.4289,
        "meta_mean_anomaly": 323.7035,
        "meta_ephemeris_type": 0,
        "meta_classification_type": "U",
        "meta_norad_cat_id": 54234,
        "meta_element_set_no": 999,
        "meta_rev_at_epoch": 16022,
        "meta_bstar": 9.6958678e-05,
        "meta_mean_motion_dot": 1.6e-06,
        "meta_mean_motion_ddot": 0,
        "tle_line1": "1 54234U 22150A   25347.65986128  .00000160  00000+0  96959-4 0  9992",
        "tle_line2": "2 54234  98.7462 283.9566 0002190  36.4289 323.7035 14.19524674160226"
      },
      "geometry": {
        "type": "Point",
        "coordinates": [
          104.41375766141431,
          -1.778508999364304
        ]
      }
    },
    {
      "type": "Feature",
      "properties": {
        "norad_id": 54743,
        "name": "METEOSAT-12 (MTG-I1)",
        "group": "weather",
        "lat": -0.2926730950552067,
        "lon": -132.87704380512093,
        "alt_km": 35780.93573549413,
        "timestamp": "2025-12-14T09:36:22.677820+00:00",
        "meta_object_name": "METEOSAT-12 (MTG-I1)",
        "meta_object_id": "2022-170C",
        "meta_epoch": "2025-12-13T15:09:40.925952",
        "meta_mean_motion": 1.00269264,
        "meta_eccentricity": 0.00016797,
        "meta_inclination": 0.6877,
        "meta_ra_of_asc_node": 23.7583,
        "meta_arg_of_pericenter": 237.9177,
        "meta_mean_anomaly": 48.0433,
        "meta_ephemeris_type": 0,
        "meta_classification_type": "U",
        "meta_norad_cat_id": 54743,
        "meta_element_set_no": 999,
        "meta_rev_at_epoch": 1111,
        "meta_bstar": 0,
        "meta_mean_motion_dot": 8e-08,
        "meta_mean_motion_ddot": 0,
        "tle_line1": "1 54743U 22170C   25347.63172368  .00000008  00000+0  00000+0 0  9998",
        "tle_line2": "2 54743   0.6877  23.7583 0001679 237.9177  48.0433  1.00269264 11116"
      },
      "geometry": {
        "type": "Point",
        "coordinates": [
          -132.87704380512093,
          -0.2926730950552067
        ]
      }
    }
  ]
}